start=new Date('2023-03-24T00:00:00.000Z').valueOf();
sats=[{"LAUNCH_DATE":"2022-05-13","GP_ID":"228716559","PERIAPSIS":"538.884","ARG_OF_PERICENTER":"85.1026","ELEMENT_SET_NO":"999","INCLINATION":"53.2155","MEAN_MOTION_DDOT":"0.0000000000000","FILE":"3868766","APOAPSIS":"540.552","OBJECT_ID":"2022-051AQ","SITE":"AFWTR","NORAD_CAT_ID":"52574","RA_OF_ASC_NODE":"295.6257","MEAN_ELEMENT_THEORY":"SGP4","MEAN_ANOMALY":"275.0104","COUNTRY_CODE":"US","REF_FRAME":"TEME","EPOCH":"2023-03-23T20:43:21.028512","ECCENTRICITY":"0.00012050","TLE_LINE2":"2 52574  53.2155 295.6257 0001205  85.1026 275.0104 15.08848946 48332","OBJECT_TYPE":"PAYLOAD","TIME_SYSTEM":"UTC","PERIOD":"95.437","DECAY_DATE":null,"BSTAR":"0.00066301000000","OBJECT_NAME":"STARLINK-3901","CLASSIFICATION_TYPE":"U","MEAN_MOTION":"15.08848946","TLE_LINE1":"1 52574U 22051AQ  23082.86343783  .00010282  00000-0  66301-3 0  9992","SEMIMAJOR_AXIS":"6917.853","REV_AT_EPOCH":"4833","CENTER_NAME":"EARTH","MEAN_MOTION_DOT":"0.00010282","EPHEMERIS_TYPE":"0","RCS_SIZE":"LARGE"},{"LAUNCH_DATE":"2022-05-13","ELEMENT_SET_NO":"999","ARG_OF_PERICENTER":"74.1486","PERIAPSIS":"539.046","GP_ID":"228716059","SITE":"AFWTR","FILE":"3868766","OBJECT_ID":"2022-051AR","APOAPSIS":"540.399","MEAN_MOTION_DDOT":"0.0000000000000","INCLINATION":"53.2131","NORAD_CAT_ID":"52575","RA_OF_ASC_NODE":"295.6799","COUNTRY_CODE":"US","MEAN_ANOMALY":"285.9614","MEAN_ELEMENT_THEORY":"SGP4","EPOCH":"2023-03-23T20:27:27.294336","REF_FRAME":"TEME","ECCENTRICITY":"0.00009780","OBJECT_TYPE":"PAYLOAD","TLE_LINE2":"2 52575  53.2131 295.6799 0000978  74.1486 285.9614 15.08847541 48338","PERIOD":"95.437","TIME_SYSTEM":"UTC","BSTAR":"0.00044768000000","OBJECT_NAME":"STARLINK-3920","DECAY_DATE":null,"CLASSIFICATION_TYPE":"U","MEAN_MOTION":"15.08847541","TLE_LINE1":"1 52575U 22051AR  23082.85239924  .00006846  00000-0  44768-3 0  9997","SEMIMAJOR_AXIS":"6917.857","REV_AT_EPOCH":"4833","CENTER_NAME":"EARTH","RCS_SIZE":"LARGE","EPHEMERIS_TYPE":"0","MEAN_MOTION_DOT":"0.00006846"},{"PERIOD":"95.437","TIME_SYSTEM":"UTC","OBJECT_NAME":"STARLINK-3932","BSTAR":"0.00012985000000","DECAY_DATE":null,"CLASSIFICATION_TYPE":"U","MEAN_MOTION":"15.08849131","SEMIMAJOR_AXIS":"6917.852","TLE_LINE1":"1 52576U 22051AS  23082.91223082  .00001780  00000-0  12985-3 0  9991","REV_AT_EPOCH":"4827","CENTER_NAME":"EARTH","RCS_SIZE":"LARGE","MEAN_MOTION_DOT":"0.00001780","EPHEMERIS_TYPE":"0","LAUNCH_DATE":"2022-05-13","ELEMENT_SET_NO":"999","ARG_OF_PERICENTER":"98.8742","PERIAPSIS":"539.064","GP_ID":"228739524","SITE":"AFWTR","APOAPSIS":"540.371","FILE":"3868816","OBJECT_ID":"2022-051AS","MEAN_MOTION_DDOT":"0.0000000000000","INCLINATION":"53.2147","NORAD_CAT_ID":"52576","RA_OF_ASC_NODE":"295.4096","COUNTRY_CODE":"US","MEAN_ANOMALY":"261.2358","MEAN_ELEMENT_THEORY":"SGP4","EPOCH":"2023-03-23T21:53:36.742848","REF_FRAME":"TEME","ECCENTRICITY":"0.00009450","OBJECT_TYPE":"PAYLOAD","TLE_LINE2":"2 52576  53.2147 295.4096 0000945  98.8742 261.2358 15.08849131 48278"},{"ELEMENT_SET_NO":"999","ARG_OF_PERICENTER":"85.7539","PERIAPSIS":"538.807","GP_ID":"228716562","LAUNCH_DATE":"2022-05-13","NORAD_CAT_ID":"52577","RA_OF_ASC_NODE":"310.4800","SITE":"AFWTR","OBJECT_ID":"2022-051AT","FILE":"3868766","APOAPSIS":"540.636","MEAN_MOTION_DDOT":"0.0000000000000","INCLINATION":"53.2129","EPOCH":"2023-03-23T21:31:42.577248","REF_FRAME":"TEME","COUNTRY_CODE":"US","MEAN_ELEMENT_THEORY":"SGP4","MEAN_ANOMALY":"274.3604","OBJECT_TYPE":"PAYLOAD","TLE_LINE2":"2 52577  53.2129 310.4800 0001322  85.7539 274.3604 15.08847687 48137","ECCENTRICITY":"0.00013220","OBJECT_NAME":"STARLINK-3836","BSTAR":"0.00059508000000","DECAY_DATE":null,"PERIOD":"95.437","TIME_SYSTEM":"UTC","MEAN_MOTION":"15.08847687","CLASSIFICATION_TYPE":"U","REV_AT_EPOCH":"4813","TLE_LINE1":"1 52577U 22051AT  23082.89702057  .00009197  00000-0  59508-3 0  9995","SEMIMAJOR_AXIS":"6917.857","RCS_SIZE":"LARGE","EPHEMERIS_TYPE":"0","MEAN_MOTION_DOT":"0.00009197","CENTER_NAME":"EARTH"},{"SEMIMAJOR_AXIS":"6917.883","TLE_LINE1":"1 52578U 22051AU  23082.90070189 -.00000425  00000-0 -86182-5 0  9999","REV_AT_EPOCH":"4806","CENTER_NAME":"EARTH","RCS_SIZE":"LARGE","MEAN_MOTION_DOT":"-0.00000425","EPHEMERIS_TYPE":"0","PERIOD":"95.438","TIME_SYSTEM":"UTC","DECAY_DATE":null,"OBJECT_NAME":"STARLINK-3833","BSTAR":"-0.00000861820000","CLASSIFICATION_TYPE":"U","MEAN_MOTION":"15.08839019","COUNTRY_CODE":"US","MEAN_ELEMENT_THEORY":"SGP4","MEAN_ANOMALY":"284.7960","REF_FRAME":"TEME","EPOCH":"2023-03-23T21:37:00.643296","ECCENTRICITY":"0.00011370","TLE_LINE2":"2 52578  53.2145 310.4668 0001137  75.3158 284.7960 15.08839019 48066","OBJECT_TYPE":"PAYLOAD","LAUNCH_DATE":"2022-05-13","ARG_OF_PERICENTER":"75.3158","ELEMENT_SET_NO":"999","GP_ID":"228740525","PERIAPSIS":"538.962","FILE":"3868816","APOAPSIS":"540.535","OBJECT_ID":"2022-051AU","SITE":"AFWTR","INCLINATION":"53.2145","MEAN_MOTION_DDOT":"0.0000000000000","RA_OF_ASC_NODE":"310.4668","NORAD_CAT_ID":"52578"},{"NORAD_CAT_ID":"52579","RA_OF_ASC_NODE":"310.5088","INCLINATION":"53.2144","MEAN_MOTION_DDOT":"0.0000000000000","OBJECT_ID":"2022-051AV","FILE":"3868766","APOAPSIS":"540.553","SITE":"AFWTR","GP_ID":"228716563","PERIAPSIS":"538.950","ARG_OF_PERICENTER":"101.1896","ELEMENT_SET_NO":"999","LAUNCH_DATE":"2022-05-13","TLE_LINE2":"2 52579  53.2144 310.5088 0001159 101.1896 258.9227 15.08838057 48132","OBJECT_TYPE":"PAYLOAD","ECCENTRICITY":"0.00011590","REF_FRAME":"TEME","EPOCH":"2023-03-23T21:21:06.808896","MEAN_ELEMENT_THEORY":"SGP4","MEAN_ANOMALY":"258.9227","COUNTRY_CODE":"US","MEAN_MOTION":"15.08838057","CLASSIFICATION_TYPE":"U","DECAY_DATE":null,"OBJECT_NAME":"STARLINK-3893","BSTAR":"0.00041469000000","TIME_SYSTEM":"UTC","PERIOD":"95.438","EPHEMERIS_TYPE":"0","MEAN_MOTION_DOT":"0.00006318","RCS_SIZE":"LARGE","CENTER_NAME":"EARTH","REV_AT_EPOCH":"4813","TLE_LINE1":"1 52579U 22051AV  23082.88966214  .00006318  00000-0  41469-3 0  9992","SEMIMAJOR_AXIS":"6917.886"},{"RA_OF_ASC_NODE":"310.4911","NORAD_CAT_ID":"52580","INCLINATION":"53.2143","MEAN_MOTION_DDOT":"0.0000000000000","FILE":"3868766","OBJECT_ID":"2022-051AW","APOAPSIS":"540.429","SITE":"AFWTR","GP_ID":"228716565","PERIAPSIS":"539.054","ARG_OF_PERICENTER":"94.8598","ELEMENT_SET_NO":"999","LAUNCH_DATE":"2022-05-13","TLE_LINE2":"2 52580  53.2143 310.4911 0000994  94.8598 265.2507 15.08841371 48135","OBJECT_TYPE":"PAYLOAD","ECCENTRICITY":"0.00009940","REF_FRAME":"TEME","EPOCH":"2023-03-23T21:26:24.661536","MEAN_ANOMALY":"265.2507","MEAN_ELEMENT_THEORY":"SGP4","COUNTRY_CODE":"US","MEAN_MOTION":"15.08841371","CLASSIFICATION_TYPE":"U","DECAY_DATE":null,"BSTAR":"0.00021597000000","OBJECT_NAME":"STARLINK-3919","TIME_SYSTEM":"UTC","PERIOD":"95.437","MEAN_MOTION_DOT":"0.00003151","EPHEMERIS_TYPE":"0","RCS_SIZE":"LARGE","CENTER_NAME":"EARTH","REV_AT_EPOCH":"4813","SEMIMAJOR_AXIS":"6917.876","TLE_LINE1":"1 52580U 22051AW  23082.89334099  .00003151  00000-0  21597-3 0  9997"},{"DECAY_DATE":null,"OBJECT_NAME":"STARLINK-3915","BSTAR":"0.00015754000000","PERIOD":"95.437","TIME_SYSTEM":"UTC","MEAN_MOTION":"15.08844812","CLASSIFICATION_TYPE":"U","REV_AT_EPOCH":"4827","SEMIMAJOR_AXIS":"6917.866","TLE_LINE1":"1 52581U 22051AX  23082.90759731  .00002221  00000-0  15754-3 0  9999","RCS_SIZE":"LARGE","EPHEMERIS_TYPE":"0","MEAN_MOTION_DOT":"0.00002221","CENTER_NAME":"EARTH","ARG_OF_PERICENTER":"82.5746","ELEMENT_SET_NO":"999","GP_ID":"228740273","PERIAPSIS":"538.892","LAUNCH_DATE":"2022-05-13","NORAD_CAT_ID":"52581","RA_OF_ASC_NODE":"295.4286","FILE":"3868816","OBJECT_ID":"2022-051AX","APOAPSIS":"540.570","SITE":"AFWTR","INCLINATION":"53.2156","MEAN_MOTION_DDOT":"0.0000000000000","REF_FRAME":"TEME","EPOCH":"2023-03-23T21:46:56.407584","COUNTRY_CODE":"US","MEAN_ANOMALY":"277.5384","MEAN_ELEMENT_THEORY":"SGP4","TLE_LINE2":"2 52581  53.2156 295.4286 0001213  82.5746 277.5384 15.08844812 48278","OBJECT_TYPE":"PAYLOAD","ECCENTRICITY":"0.00012130"},{"MEAN_MOTION_DDOT":"0.0000000000000","INCLINATION":"53.2139","SITE":"AFWTR","OBJECT_ID":"2022-051AY","FILE":"3868766","APOAPSIS":"540.581","RA_OF_ASC_NODE":"295.6953","NORAD_CAT_ID":"52582","LAUNCH_DATE":"2022-05-13","PERIAPSIS":"538.888","GP_ID":"228716060","ELEMENT_SET_NO":"999","ARG_OF_PERICENTER":"78.5814","ECCENTRICITY":"0.00012240","OBJECT_TYPE":"PAYLOAD","TLE_LINE2":"2 52582  53.2139 295.6953 0001224  78.5814 281.5316 15.08843621 48330","MEAN_ELEMENT_THEORY":"SGP4","MEAN_ANOMALY":"281.5316","COUNTRY_CODE":"US","EPOCH":"2023-03-23T20:22:09.498720","REF_FRAME":"TEME","CLASSIFICATION_TYPE":"U","MEAN_MOTION":"15.08843621","TIME_SYSTEM":"UTC","PERIOD":"95.437","OBJECT_NAME":"STARLINK-3886","BSTAR":"0.00031822000000","DECAY_DATE":null,"CENTER_NAME":"EARTH","EPHEMERIS_TYPE":"0","MEAN_MOTION_DOT":"0.00004781","RCS_SIZE":"LARGE","SEMIMAJOR_AXIS":"6917.869","TLE_LINE1":"1 52582U 22051AY  23082.84872105  .00004781  00000-0  31822-3 0  9991","REV_AT_EPOCH":"4833"},{"DECAY_DATE":null,"BSTAR":"0.00043222000000","OBJECT_NAME":"STARLINK-3895","TIME_SYSTEM":"UTC","PERIOD":"95.437","MEAN_MOTION":"15.08848054","CLASSIFICATION_TYPE":"U","REV_AT_EPOCH":"4827","SEMIMAJOR_AXIS":"6917.856","TLE_LINE1":"1 52583U 22051AZ  23082.90391802  .00006599  00000-0  43222-3 0  9995","MEAN_MOTION_DOT":"0.00006599","EPHEMERIS_TYPE":"0","RCS_SIZE":"LARGE","CENTER_NAME":"EARTH","GP_ID":"228741254","PERIAPSIS":"538.864","ARG_OF_PERICENTER":"63.3891","ELEMENT_SET_NO":"999","LAUNCH_DATE":"2022-05-13","NORAD_CAT_ID":"52583","RA_OF_ASC_NODE":"295.4486","INCLINATION":"53.2136","MEAN_MOTION_DDOT":"0.0000000000000","FILE":"3868816","OBJECT_ID":"2022-051AZ","APOAPSIS":"540.578","SITE":"AFWTR","REF_FRAME":"TEME","EPOCH":"2023-03-23T21:41:38.516928","MEAN_ELEMENT_THEORY":"SGP4","MEAN_ANOMALY":"296.7228","COUNTRY_CODE":"US","TLE_LINE2":"2 52583  53.2136 295.4486 0001239  63.3891 296.7228 15.08848054 48278","OBJECT_TYPE":"PAYLOAD","ECCENTRICITY":"0.00012390"}];
